FALCONSAT-10            
1 58291U 23174AM  26068.70247784  .00006748  00000+0  25969-3 0  9991
2 58291  97.3865 145.7938 0008932 169.5942 190.5483 15.26670596129582
STARLINK-32391          
1 61855U 24202L   26068.51963344 -.00005904  00000+0 -20506-3 0  9997
2 61855  43.0046 238.7795 0002418 308.2323  51.8311 15.27594358 75304
